ONEWEB-0086             
1 45456U 20020AJ  23240.01973255  .00000557  00000+0  15363-2 0  9997
2 45456  87.8908 224.4862 0001972 102.0702 258.0647 13.11418931168374
ONEWEB-0088             
1 45457U 20020AK  23240.68307449 -.00000478  00000+0 -13843-2 0  9992
2 45457  87.8907 224.3358 0001900  89.8920 270.2425 13.11416895168409
ONEWEB-0102             
1 47258U 20100A   23240.11678108 -.00000059  00000+0 -19872-3 0  9997
2 47258  87.9045 194.2308 0002402  80.4822 279.6578 13.12443819130408
ONEWEB-0109             
1 47259U 20100B   23240.58481284 -.00000285  00000+0 -82717-3 0  9995
2 47259  87.8977 194.1486 0002066  82.0441 278.0922 13.12441112130296
ONEWEB-0110             
1 47260U 20100C   23240.15068489  .00000015  00000+0  57646-5 0  9992
2 47260  87.9042 194.2056 0002278  82.9433 277.1955 13.12443448130404
ONEWEB-0111             
1 47261U 20100D   23240.10622129  .00000310  00000+0  82711-3 0  9992
2 47261  87.9056 194.1996 0002181  81.3759 278.7616 13.12437377130235
ONEWEB-0114             
1 47262U 20100E   23240.13796537 -.00000397  00000+0 -11380-2 0  9991
2 47262  87.9041 194.2188 0002464  69.7806 290.3587 13.12443964130192
ONEWEB-0117             
1 47263U 20100F   23240.12949496 -.00000424  00000+0 -12152-2 0  9994
2 47263  87.8976 194.2491 0002062  82.5819 277.5544 13.12441521130206
